[
    {
        "Altitude(m)": 704227.0648927698,
        "Argument of Periapsis(deg)": 0.006834072711976239,
        "Eccentricity": 0.0,
        "Inclination(deg)": 45.0,
        "Latitude(deg)": -4.980466380678762,
        "Longitude(deg)": 99.52053326414273,
        "Mean Anomaly(deg)": 186.9199299884885,
        "RAAN(deg)": 14.993548835125077,
        "Satellite Name": "Constellation 1 77",
        "Satellite Number": 77,
        "Semi-Major Axis(m)": 7083131.272910544,
        "Time(s)": 114
    },
    {
        "Altitude(m)": 704234.9961285896,
        "Argument of Periapsis(deg)": 0.006894020718221645,
        "Eccentricity": 0.0,
        "Inclination(deg)": 45.0,
        "Latitude(deg)": -5.02350595032901,
        "Longitude(deg)": 99.55959926024389,
        "Mean Anomaly(deg)": 186.98063112873837,
        "RAAN(deg)": 14.993492245959507,
        "Satellite Name": "Constellation 1 77",
        "Satellite Number": 77,
        "Semi-Major Axis(m)": 7083131.272910544,
        "Time(s)": 115
    },
    {
        "Altitude(m)": 704242.9466300812,
        "Argument of Periapsis(deg)": 0.006953968724467052,
        "Eccentricity": 0.0,
        "Inclination(deg)": 45.0,
        "Latitude(deg)": -5.06654252668063,
        "Longitude(deg)": 99.59867083613551,
        "Mean Anomaly(deg)": 187.0413322689883,
        "RAAN(deg)": 14.993435656793938,
        "Satellite Name": "Constellation 1 77",
        "Satellite Number": 77,
        "Semi-Major Axis(m)": 7083131.272910544,
        "Time(s)": 116
    },
    {
        "Altitude(m)": 704250.9163800685,
        "Argument of Periapsis(deg)": 0.007013916730712457,
        "Eccentricity": 0.0,
        "Inclination(deg)": 45.0,
        "Latitude(deg)": -5.1095760842121285,
        "Longitude(deg)": 99.63774804080376,
        "Mean Anomaly(deg)": 187.10203340923817,
        "RAAN(deg)": 14.993379067628368,
        "Satellite Name": "Constellation 1 77",
        "Satellite Number": 77,
        "Semi-Major Axis(m)": 7083131.272910544,
        "Time(s)": 117
    },
    {
        "Altitude(m)": 704258.905361285,
        "Argument of Periapsis(deg)": 0.007073864736957864,
        "Eccentricity": 0.0,
        "Inclination(deg)": 45.0,
        "Latitude(deg)": -5.152606597391639,
        "Longitude(deg)": 99.67683092324695,
        "Mean Anomaly(deg)": 187.16273454948808,
        "RAAN(deg)": 14.9933224784628,
        "Satellite Name": "Constellation 1 77",
        "Satellite Number": 77,
        "Semi-Major Axis(m)": 7083131.272910544,
        "Time(s)": 118
    },
    {
        "Altitude(m)": 704266.9135563828,
        "Argument of Periapsis(deg)": 0.0071338127432032696,
        "Eccentricity": 0.0,
        "Inclination(deg)": 45.0,
        "Latitude(deg)": -5.195634040676671,
        "Longitude(deg)": 99.71591936437852,
        "Mean Anomaly(deg)": 187.223435689738,
        "RAAN(deg)": 14.99326588929723,
        "Satellite Name": "Constellation 1 77",
        "Satellite Number": 77,
        "Semi-Major Axis(m)": 7083131.272910544,
        "Time(s)": 119
    },
    {
        "Altitude(m)": 704274.9409479173,
        "Argument of Periapsis(deg)": 0.007193760749448674,
        "Eccentricity": 0.0,
        "Inclination(deg)": 45.0,
        "Latitude(deg)": -5.238658388514181,
        "Longitude(deg)": 99.7550137494152,
        "Mean Anomaly(deg)": 187.2841368299879,
        "RAAN(deg)": 14.99320930013166,
        "Satellite Name": "Constellation 1 77",
        "Satellite Number": 77,
        "Semi-Major Axis(m)": 7083131.272910544,
        "Time(s)": 120
    },
    {
        "Altitude(m)": 704282.9875183572,
        "Argument of Periapsis(deg)": 0.007253708755694079,
        "Eccentricity": 0.0,
        "Inclination(deg)": 45.0,
        "Latitude(deg)": -5.281679615340444,
        "Longitude(deg)": 99.7941139592952,
        "Mean Anomaly(deg)": 187.3448379702378,
        "RAAN(deg)": 14.993152710966092,
        "Satellite Name": "Constellation 1 77",
        "Satellite Number": 77,
        "Semi-Major Axis(m)": 7083131.272910544,
        "Time(s)": 121
    },
    {
        "Altitude(m)": 704291.0532500795,
        "Argument of Periapsis(deg)": 0.0073136567619394854,
        "Eccentricity": 0.0,
        "Inclination(deg)": 45.0,
        "Latitude(deg)": -5.324697695580868,
        "Longitude(deg)": 99.83322004306616,
        "Mean Anomaly(deg)": 187.4055391104877,
        "RAAN(deg)": 14.99309612180052,
        "Satellite Name": "Constellation 1 77",
        "Satellite Number": 77,
        "Semi-Major Axis(m)": 7083131.272910544,
        "Time(s)": 122
    },
    {
        "Altitude(m)": 704299.1381253733,
        "Argument of Periapsis(deg)": 0.0073736047681848904,
        "Eccentricity": 0.0,
        "Inclination(deg)": 45.0,
        "Latitude(deg)": -5.367712603650029,
        "Longitude(deg)": 99.87233204978838,
        "Mean Anomaly(deg)": 187.46624025073763,
        "RAAN(deg)": 14.99303953263495,
        "Satellite Name": "Constellation 1 77",
        "Satellite Number": 77,
        "Semi-Major Axis(m)": 7083131.272910544,
        "Time(s)": 123
    },
    {
        "Altitude(m)": 704307.2421264369,
        "Argument of Periapsis(deg)": 0.007433552774430298,
        "Eccentricity": 0.0,
        "Inclination(deg)": 45.0,
        "Latitude(deg)": -5.410724313951403,
        "Longitude(deg)": 99.91145002853476,
        "Mean Anomaly(deg)": 187.52694139098747,
        "RAAN(deg)": 14.992982943469382,
        "Satellite Name": "Constellation 1 77",
        "Satellite Number": 77,
        "Semi-Major Axis(m)": 7083131.272910544,
        "Time(s)": 124
    },
    {
        "Altitude(m)": 704315.3652353883,
        "Argument of Periapsis(deg)": 0.007493500780675703,
        "Eccentricity": 0.0,
        "Inclination(deg)": 45.0,
        "Latitude(deg)": -5.453732800877551,
        "Longitude(deg)": 99.95057402839107,
        "Mean Anomaly(deg)": 187.5876425312374,
        "RAAN(deg)": 14.992926354303812,
        "Satellite Name": "Constellation 1 77",
        "Satellite Number": 77,
        "Semi-Major Axis(m)": 7083131.272910544,
        "Time(s)": 125
    },
    {
        "Altitude(m)": 704323.5074342436,
        "Argument of Periapsis(deg)": 0.007553448786921108,
        "Eccentricity": 0.0,
        "Inclination(deg)": 45.0,
        "Latitude(deg)": -5.496738038809611,
        "Longitude(deg)": 99.98970393035893,
        "Mean Anomaly(deg)": 187.64834367148728,
        "RAAN(deg)": 14.992869765138243,
        "Satellite Name": "Constellation 1 77",
        "Satellite Number": 77,
        "Semi-Major Axis(m)": 7083131.272910544,
        "Time(s)": 126
    },
    {
        "Altitude(m)": 704331.6687049331,
        "Argument of Periapsis(deg)": 0.007613396793166514,
        "Eccentricity": 0.0,
        "Inclination(deg)": 45.0,
        "Latitude(deg)": -5.539740002117815,
        "Longitude(deg)": 100.0288401197441,
        "Mean Anomaly(deg)": 187.7090448117372,
        "RAAN(deg)": 14.992813175972673,
        "Satellite Name": "Constellation 1 77",
        "Satellite Number": 77,
        "Semi-Major Axis(m)": 7083131.272910544,
        "Time(s)": 127
    },
    {
        "Altitude(m)": 704339.8490293025,
        "Argument of Periapsis(deg)": 0.007673344799411918,
        "Eccentricity": 0.0,
        "Inclination(deg)": 45.0,
        "Latitude(deg)": -5.582738665160667,
        "Longitude(deg)": 100.06798247757429,
        "Mean Anomaly(deg)": 187.7697459519871,
        "RAAN(deg)": 14.992756586807104,
        "Satellite Name": "Constellation 1 77",
        "Satellite Number": 77,
        "Semi-Major Axis(m)": 7083131.272910544,
        "Time(s)": 128
    },
    {
        "Altitude(m)": 704348.0483891149,
        "Argument of Periapsis(deg)": 0.007733292805657325,
        "Eccentricity": 0.0,
        "Inclination(deg)": 45.0,
        "Latitude(deg)": -5.625734002285401,
        "Longitude(deg)": 100.1071310529875,
        "Mean Anomaly(deg)": 187.83044709223697,
        "RAAN(deg)": 14.992699997641536,
        "Satellite Name": "Constellation 1 77",
        "Satellite Number": 77,
        "Semi-Major Axis(m)": 7083131.272910544,
        "Time(s)": 129
    },
    {
        "Altitude(m)": 704356.2667660217,
        "Argument of Periapsis(deg)": 0.00779324081190273,
        "Eccentricity": 0.0,
        "Inclination(deg)": 45.0,
        "Latitude(deg)": -5.668725987827656,
        "Longitude(deg)": 100.14628589513502,
        "Mean Anomaly(deg)": 187.89114823248687,
        "RAAN(deg)": 14.992643408475965,
        "Satellite Name": "Constellation 1 77",
        "Satellite Number": 77,
        "Semi-Major Axis(m)": 7083131.272910544,
        "Time(s)": 130
    },
    {
        "Altitude(m)": 704364.504141611,
        "Argument of Periapsis(deg)": 0.007853188818148135,
        "Eccentricity": 0.0,
        "Inclination(deg)": 45.0,
        "Latitude(deg)": -5.711714596111507,
        "Longitude(deg)": 100.18544705318155,
        "Mean Anomaly(deg)": 187.9518493727368,
        "RAAN(deg)": 14.992586819310397,
        "Satellite Name": "Constellation 1 77",
        "Satellite Number": 77,
        "Semi-Major Axis(m)": 7083131.272910544,
        "Time(s)": 131
    },
    {
        "Altitude(m)": 704372.7604973624,
        "Argument of Periapsis(deg)": 0.007913136824393542,
        "Eccentricity": 0.0,
        "Inclination(deg)": 45.0,
        "Latitude(deg)": -5.754699801449077,
        "Longitude(deg)": 100.22461457630517,
        "Mean Anomaly(deg)": 188.01255051298668,
        "RAAN(deg)": 14.992530230144824,
        "Satellite Name": "Constellation 1 77",
        "Satellite Number": 77,
        "Semi-Major Axis(m)": 7083131.272910544,
        "Time(s)": 132
    }
]